NORAD_CAT_ID,OBJECT_NAME,OBJECT_TYPE,EPOCH,MEAN_MOTION,ECCENTRICITY,INCLINATION,RA_OF_ASC_NODE,ARG_OF_PERICENTER,MEAN_ANOMALY,BSTAR,MEAN_MOTION_DOT,MEAN_MOTION_DDOT,TLE_LINE0,TLE_LINE1,TLE_LINE2,SEMIMAJOR_AXIS,PERIOD,APOGEE,PERIGEE,DECAYED
53564.0,STARLINK-4577,PAYLOAD,2023-04-26 07:17:55,15.08825813,0.0001271,53.2181,80.577,81.94,278.1736,-0.00018291,-3.197e-05,0.0,0 STARLINK-4577,1 53564U 22101AP  23116.30411668 -.00003197  00000-0 -18291-3 0  9997,2 53564  53.2181  80.5770 0001271  81.9400 278.1736 15.08825813 38179,6917.924,95.438,540.668,538.909,0.0
53564.0,STARLINK-4577,PAYLOAD,2023-04-27 07:08:42,15.08797746,0.0001433,53.2181,76.1161,99.2198,260.8957,0.00040179,6.105e-05,0.0,0 STARLINK-4577,1 53564U 22101AP  23117.29771971  .00006105  00000-0  40179-3 0  9992,2 53564  53.2181  76.1161 0001433  99.2198 260.8957 15.08797746 38323,6918.01,95.44,540.866,538.883,0.0
53564.0,STARLINK-4577,PAYLOAD,2023-04-28 03:48:42,15.0884293,0.0001267,53.2181,72.2527,92.4379,267.6758,0.00024542,3.62e-05,0.0,0 STARLINK-4577,1 53564U 22101AP  23118.15882214  .00003620  00000-0  24542-3 0  9996,2 53564  53.2181  72.2527 0001267  92.4379 267.6758 15.08842930 38451,6917.871,95.437,540.613,538.86,0.0
53564.0,STARLINK-4577,PAYLOAD,2023-04-28 13:21:01,15.08831988,0.0001164,53.2187,70.4664,98.2064,261.9061,0.00012374,1.682e-05,0.0,0 STARLINK-4577,1 53564U 22101AP  23118.55627061  .00001682  00000-0  12374-3 0  9993,2 53564  53.2187  70.4664 0001164  98.2064 261.9061 15.08831988 38512,6917.905,95.438,540.575,538.965,0.0
53564.0,STARLINK-4577,PAYLOAD,2023-04-29 03:39:29,15.08847359,0.000123,53.2188,67.7923,95.0416,265.0716,-2.9007e-05,-7.5e-06,0.0,0 STARLINK-4577,1 53564U 22101AP  23119.15242890 -.00000750  00000-0 -29007-4 0  9992,2 53564  53.2188  67.7923 0001230  95.0416 265.0716 15.08847359 38601,6917.858,95.437,540.574,538.872,0.0
53564.0,STARLINK-4577,PAYLOAD,2023-04-30 03:30:16,15.08848312,0.0001276,53.2187,63.3323,96.703,263.4108,-0.00013527,-2.441e-05,0.0,0 STARLINK-4577,1 53564U 22101AP  23120.14602932 -.00002441  00000-0 -13527-3 0  9998,2 53564  53.2187  63.3323 0001276  96.7030 263.4108 15.08848312 38759,6917.855,95.437,540.603,538.837,0.0
53564.0,STARLINK-4577,PAYLOAD,2023-05-01 04:56:26,15.08841765,0.0001138,53.2183,58.5735,89.0009,271.1113,8.795e-06,-1.48e-06,0.0,0 STARLINK-4577,1 53564U 22101AP  23121.20586742 -.00000148  00000-0  87950-5 0  9990,2 53564  53.2183  58.5735 0001138  89.0009 271.1113 15.08841765 38911,6917.875,95.437,540.527,538.953,0.0
53564.0,STARLINK-4577,PAYLOAD,2023-05-02 04:47:13,15.08853957,0.0001238,53.2182,54.1102,91.5888,268.5246,-3.4588e-05,-8.39e-06,0.0,0 STARLINK-4577,1 53564U 22101AP  23122.19946090 -.00000839  00000-0 -34588-4 0  9991,2 53564  53.2182  54.1102 0001238  91.5888 268.5246 15.08853957 39064,6917.838,95.437,540.559,538.846,0.0
53564.0,STARLINK-4577,PAYLOAD,2023-05-02 19:05:42,15.08835198,0.0001267,53.2179,51.4358,76.0697,284.0436,-1.0269e-05,-4.51e-06,0.0,0 STARLINK-4577,1 53564U 22101AP  23122.79563347 -.00000451  00000-0 -10269-4 0  9997,2 53564  53.2179  51.4358 0001267  76.0697 284.0436 15.08835198 39152,6917.895,95.438,540.637,538.884,0.0
53564.0,STARLINK-4577,PAYLOAD,2023-05-03 01:27:15,15.08837747,0.0001166,53.2181,50.2447,90.159,269.9536,-4.4365e-05,-9.94e-06,0.0,0 STARLINK-4577,1 53564U 22101AP  23123.06059308 -.00000994  00000-0 -44365-4 0  9991,2 53564  53.2181  50.2447 0001166  90.1590 269.9536 15.08837747 39197,6917.887,95.438,540.559,538.946,0.0
53564.0,STARLINK-4577,PAYLOAD,2023-05-03 18:56:29,15.0884623,0.0001207,53.218,46.9735,88.2221,271.8909,-4.4207e-05,-9.91e-06,0.0,0 STARLINK-4577,1 53564U 22101AP  23123.78922881 -.00000991  00000-0 -44207-4 0  9997,2 53564  53.2180  46.9735 0001207  88.2221 271.8909 15.08846230 39309,6917.861,95.437,540.561,538.891,0.0
53564.0,STARLINK-4577,PAYLOAD,2023-05-03 22:07:15,15.08876409,0.0001424,53.2184,46.38,106.0947,254.0202,-0.00034902,-5.844e-05,0.0,0 STARLINK-4577,1 53564U 22101AP  23123.92170336 -.00005844  00000-0 -34902-3 0  9995,2 53564  53.2184  46.3800 0001424 106.0947 254.0202 15.08876409 39327,6917.769,95.435,540.619,538.649,0.0
53564.0,STARLINK-4577,PAYLOAD,2023-05-04 01:18:01,15.0885308,0.0001191,53.2182,45.7844,91.8352,268.2776,1.0969e-05,-1.13e-06,0.0,0 STARLINK-4577,1 53564U 22101AP  23124.05418048 -.00000113  00000-0  10969-4 0  9996,2 53564  53.2182  45.7844 0001191  91.8352 268.2776 15.08853080 39343,6917.84,95.437,540.529,538.881,0.0
53564.0,STARLINK-4577,PAYLOAD,2023-05-04 04:28:47,15.08854938,0.0001207,53.2181,45.1894,98.3788,261.7341,4.3995e-06,-2.18e-06,0.0,0 STARLINK-4577,1 53564U 22101AP  23124.18665832 -.00000218  00000-0  43995-5 0  9997,2 53564  53.2181  45.1894 0001207  98.3788 261.7341 15.08854938 39365,6917.835,95.437,540.535,538.865,0.0
53564.0,STARLINK-4577,PAYLOAD,2023-05-04 18:47:16,15.08833824,0.0001033,53.2189,42.5141,93.6289,266.4821,-1.7065e-05,-5.59e-06,0.0,0 STARLINK-4577,1 53564U 22101AP  23124.78283163 -.00000559  00000-0 -17065-4 0  9993,2 53564  53.2189  42.5141 0001033  93.6289 266.4821 15.08833824 39456,6917.899,95.438,540.479,539.05,0.0
53564.0,STARLINK-4577,PAYLOAD,2023-05-04 21:58:02,15.08839744,9.76e-05,53.2177,41.9178,92.5157,267.5947,1.0855e-05,-1.15e-06,0.0,0 STARLINK-4577,1 53564U 22101AP  23124.91530725 -.00000115  00000-0  10855-4 0  9994,2 53564  53.2177  41.9178 0000976  92.5157 267.5947 15.08839744 39473,6917.881,95.438,540.421,539.071,0.0
53564.0,STARLINK-4577,PAYLOAD,2023-05-05 04:19:34,15.08841763,0.0001122,53.2179,40.7286,97.2187,262.8932,4.1943e-05,3.8e-06,0.0,0 STARLINK-4577,1 53564U 22101AP  23125.18026430  .00000380  00000-0  41943-4 0  9992,2 53564  53.2179  40.7286 0001122  97.2187 262.8932 15.08841763 39512,6917.875,95.437,540.516,538.964,0.0
53564.0,STARLINK-4577,PAYLOAD,2023-05-06 00:59:35,15.08843605,9.63e-05,53.2177,36.864,93.208,266.9022,-6.7724e-05,-1.365e-05,0.0,0 STARLINK-4577,1 53564U 22101AP  23126.04138757 -.00001365  00000-0 -67724-4 0  9995,2 53564  53.2177  36.8640 0000963  93.2080 266.9022 15.08843605 39646,6917.869,95.437,540.401,539.068,0.0
53564.0,STARLINK-4577,PAYLOAD,2023-05-07 02:25:45,15.08846521,8.18e-05,53.2166,32.1068,91.0276,269.081,6.2669e-05,7.1e-06,0.0,0 STARLINK-4577,1 53564U 22101AP  23127.10122213  .00000710  00000-0  62669-4 0  9997,2 53564  53.2166  32.1068 0000818  91.0276 269.0810 15.08846521 39806,6917.86,95.437,540.291,539.16,0.0
53564.0,STARLINK-4577,PAYLOAD,2023-05-07 21:30:25,15.08827304,0.0001069,53.2165,28.5371,90.161,269.9504,-8.8145e-05,-1.69e-05,0.0,0 STARLINK-4577,1 53564U 22101AP  23127.89612549 -.00001690  00000-0 -88145-4 0  9996,2 53564  53.2165  28.5371 0001069  90.1610 269.9504 15.08827304 39922,6917.919,95.438,540.524,539.045,0.0
53564.0,STARLINK-4577,PAYLOAD,2023-05-08 02:16:34,15.08827513,0.0001014,53.217,27.6452,88.56,271.5508,-8.1941e-05,-1.591e-05,0.0,0 STARLINK-4577,1 53564U 22101AP  23128.09484652 -.00001591  00000-0 -81941-4 0  9998,2 53564  53.2170  27.6452 0001014  88.5600 271.5508 15.08827513 39956,6917.919,95.438,540.485,539.082,0.0
53564.0,STARLINK-4577,PAYLOAD,2023-05-08 10:13:29,15.08834061,0.0001058,53.2174,26.1577,85.1598,274.9515,4.9625e-06,-2.09e-06,0.0,0 STARLINK-4577,1 53564U 22101AP  23128.42604124 -.00000209  00000-0  49625-5 0  9991,2 53564  53.2174  26.1577 0001058  85.1598 274.9515 15.08834061 40008,6917.899,95.438,540.495,539.032,0.0
53564.0,STARLINK-4577,PAYLOAD,2023-05-09 02:07:18,15.08942436,0.0001178,53.2175,23.1839,119.198,240.913,-0.00098185,-0.00015924,0.0,0 STARLINK-4577,1 53564U 22101AP  23129.08840354 -.00015924  00000-0 -98185-3 0  9995,2 53564  53.2175  23.1839 0001178 119.1980 240.9130 15.08942436 40106,6917.567,95.431,540.247,538.617,0.0
53564.0,STARLINK-4577,PAYLOAD,2023-05-10 05:08:53,15.08844714,0.0001025,53.2166,18.1307,75.761,284.3496,0.00015996,2.259e-05,0.0,0 STARLINK-4577,1 53564U 22101AP  23130.21450941  .00002259  00000-0  15996-3 0  9995,2 53564  53.2166  18.1307 0001025  75.7610 284.3496 15.08844714 40273,6917.866,95.437,540.44,539.022,0.0
53564.0,STARLINK-4577,PAYLOAD,2023-05-10 19:27:22,15.0884005,0.0001176,53.2174,15.4549,85.394,274.7187,-0.00010711,-1.992e-05,0.0,0 STARLINK-4577,1 53564U 22101AP  23130.81068058 -.00001992  00000-0 -10711-3 0  9990,2 53564  53.2174  15.4549 0001176  85.3940 274.7187 15.08840050 40369,6917.88,95.438,540.559,538.932,0.0
53564.0,STARLINK-4577,PAYLOAD,2023-05-11 11:21:13,15.0884739,0.0001385,53.2169,12.4822,90.0048,270.1102,-0.00014224,-2.551e-05,0.0,0 STARLINK-4577,1 53564U 22101AP  23131.47307443 -.00002551  00000-0 -14224-3 0  9992,2 53564  53.2169  12.4822 0001385  90.0048 270.1102 15.08847390 40460,6917.858,95.437,540.681,538.765,0.0
53564.0,STARLINK-4577,PAYLOAD,2023-05-11 22:28:56,15.0883569,0.0001127,53.2163,10.3997,61.7484,298.3622,-9.3213e-05,-1.771e-05,0.0,0 STARLINK-4577,1 53564U 22101AP  23131.93676383 -.00001771  00000-0 -93213-4 0  9994,2 53564  53.2163  10.3997 0001127  61.7484 298.3622 15.08835690 40534,6917.894,95.438,540.538,538.979,0.0
53564.0,STARLINK-4577,PAYLOAD,2023-05-12 22:19:42,15.08848001,0.0001197,53.2161,5.9386,71.7377,288.3745,-2.2546e-06,-3.24e-06,0.0,0 STARLINK-4577,1 53564U 22101AP  23132.93035482 -.00000324  00000-0 -22546-5 0  9999,2 53564  53.2161   5.9386 0001197  71.7377 288.3745 15.08848001 40684,6917.856,95.437,540.549,538.893,0.0
53564.0,STARLINK-4577,PAYLOAD,2023-05-13 18:59:44,15.08832505,0.0001115,53.2159,2.0717,90.615,269.497,4.5222e-05,4.32e-06,0.0,0 STARLINK-4577,1 53564U 22101AP  23133.79148223  .00000432  00000-0  45222-4 0  9995,2 53564  53.2159   2.0717 0001115  90.6150 269.4970 15.08832505 40813,6917.903,95.438,540.54,538.997,0.0
53564.0,STARLINK-4577,PAYLOAD,2023-05-13 22:10:30,15.08836844,0.0001101,53.2162,1.4786,76.5263,283.5852,8.0572e-05,9.95e-06,0.0,0 STARLINK-4577,1 53564U 22101AP  23133.92395925  .00000995  00000-0  80572-4 0  9994,2 53564  53.2162   1.4786 0001101  76.5263 283.5852 15.08836844 40837,6917.89,95.438,540.517,538.993,0.0
